[{"OBJECT_NAME":"STARLINK-36597","OBJECT_ID":"2026-018AA","EPOCH":"2026-03-09T22:00:01.999584","MEAN_MOTION":15.6227294,"ECCENTRICITY":0.00019632,"INCLINATION":97.2837,"RA_OF_ASC_NODE":134.8157,"ARG_OF_PERICENTER":78.0826,"MEAN_ANOMALY":100.8672,"EPHEMERIS_TYPE":0,"CLASSIFICATION_TYPE":"U","NORAD_CAT_ID":67613,"ELEMENT_SET_NO":999,"REV_AT_EPOCH":604,"BSTAR":-0.025061707,"MEAN_MOTION_DOT":-0.01947068,"MEAN_MOTION_DDOT":0},{"OBJECT_NAME":"DELTA 1 DEB [YO]","OBJECT_ID":"1962-002C","EPOCH":"2026-03-09T12:58:51.022848","MEAN_MOTION":15.45837912,"ECCENTRICITY":0.00080399,"INCLINATION":48.4299,"RA_OF_ASC_NODE":124.8459,"ARG_OF_PERICENTER":7.1395,"MEAN_ANOMALY":352.966,"EPHEMERIS_TYPE":0,"CLASSIFICATION_TYPE":"U","NORAD_CAT_ID":228,"ELEMENT_SET_NO":999,"REV_AT_EPOCH":42765,"BSTAR":0.00070474925,"MEAN_MOTION_DOT":0.0003465,"MEAN_MOTION_DDOT":0}]
